{
  "type": "FeatureCollection",
  "properties": {
    "corridor_ref": "urn:worldfabric:corridor:middle-corridor",
    "geometry_status": "indicative",
    "note": "Node positions are approximate coordinates of named places. The connecting line is schematic, not a surveyed alignment."
  },
  "features": [
    {
      "type": "Feature",
      "properties": {
        "segment": 1,
        "name": "East Asian origin interfaces",
        "place": "Xi'an",
        "role": "origin",
        "geometry_status": "indicative",
        "label_dx": 0,
        "label_dy": -2.4,
        "label_anchor": "middle"
      },
      "geometry": {
        "type": "Point",
        "coordinates": [
          108.94,
          34.34
        ]
      }
    },
    {
      "type": "Feature",
      "properties": {
        "segment": 2,
        "name": "China–Kazakhstan border interface",
        "place": "Khorgos / Altynkol",
        "role": "border",
        "geometry_status": "indicative",
        "label_dx": 0,
        "label_dy": -2.4,
        "label_anchor": "middle"
      },
      "geometry": {
        "type": "Point",
        "coordinates": [
          80.42,
          44.22
        ]
      }
    },
    {
      "type": "Feature",
      "properties": {
        "segment": 3,
        "name": "Kazakhstan rail system",
        "place": "Almaty",
        "role": "rail",
        "geometry_status": "indicative",
        "label_dx": 0,
        "label_dy": 3.6,
        "label_anchor": "middle"
      },
      "geometry": {
        "type": "Point",
        "coordinates": [
          76.89,
          43.24
        ]
      }
    },
    {
      "type": "Feature",
      "properties": {
        "segment": 4,
        "name": "Eastern Caspian ports",
        "place": "Aktau / Kuryk",
        "role": "port",
        "geometry_status": "indicative",
        "label_dx": 1.6,
        "label_dy": -1.4,
        "label_anchor": "start"
      },
      "geometry": {
        "type": "Point",
        "coordinates": [
          51.15,
          43.65
        ]
      }
    },
    {
      "type": "Feature",
      "properties": {
        "segment": 5,
        "name": "Caspian maritime crossing",
        "place": "Caspian Sea",
        "role": "crossing",
        "bottleneck": "bottleneck:caspian-crossing-coordination",
        "geometry_status": "indicative",
        "label_dx": 2.0,
        "label_dy": 0.6,
        "label_anchor": "start"
      },
      "geometry": {
        "type": "Point",
        "coordinates": [
          50.31,
          41.8
        ]
      }
    },
    {
      "type": "Feature",
      "properties": {
        "segment": 6,
        "name": "Western Caspian / Alat interface",
        "place": "Alat",
        "role": "port",
        "geometry_status": "indicative",
        "label_dx": 1.6,
        "label_dy": 1.9,
        "label_anchor": "start"
      },
      "geometry": {
        "type": "Point",
        "coordinates": [
          49.47,
          39.94
        ]
      }
    },
    {
      "type": "Feature",
      "properties": {
        "segment": 7,
        "name": "Azerbaijan rail",
        "place": "Ganja",
        "role": "rail",
        "geometry_status": "indicative",
        "label_hidden": true
      },
      "geometry": {
        "type": "Point",
        "coordinates": [
          46.36,
          40.68
        ]
      }
    },
    {
      "type": "Feature",
      "properties": {
        "segment": 8,
        "name": "Georgia rail",
        "place": "Tbilisi",
        "role": "rail",
        "geometry_status": "indicative",
        "label_dx": 0,
        "label_dy": -2.4,
        "label_anchor": "middle"
      },
      "geometry": {
        "type": "Point",
        "coordinates": [
          44.79,
          41.72
        ]
      }
    },
    {
      "type": "Feature",
      "properties": {
        "segment": 9,
        "name": "Türkiye rail",
        "place": "Kars",
        "role": "rail",
        "geometry_status": "indicative",
        "label_hidden": true
      },
      "geometry": {
        "type": "Point",
        "coordinates": [
          43.09,
          40.6
        ]
      }
    },
    {
      "type": "Feature",
      "properties": {
        "segment": 9,
        "name": "Türkiye rail",
        "place": "Istanbul",
        "role": "rail",
        "geometry_status": "indicative",
        "label_dx": 0,
        "label_dy": 3.6,
        "label_anchor": "middle"
      },
      "geometry": {
        "type": "Point",
        "coordinates": [
          28.98,
          41.01
        ]
      }
    },
    {
      "type": "Feature",
      "properties": {
        "segment": 10,
        "name": "European network interfaces",
        "place": "Kapıkule",
        "role": "interface",
        "geometry_status": "indicative",
        "label_dx": 0,
        "label_dy": -2.4,
        "label_anchor": "middle"
      },
      "geometry": {
        "type": "Point",
        "coordinates": [
          26.53,
          41.72
        ]
      }
    },
    {
      "type": "Feature",
      "properties": {
        "name": "Indicative corridor alignment",
        "geometry_status": "indicative"
      },
      "geometry": {
        "type": "LineString",
        "coordinates": [
          [
            108.94,
            34.34
          ],
          [
            80.42,
            44.22
          ],
          [
            76.89,
            43.24
          ],
          [
            51.15,
            43.65
          ],
          [
            50.31,
            41.8
          ],
          [
            49.47,
            39.94
          ],
          [
            46.36,
            40.68
          ],
          [
            44.79,
            41.72
          ],
          [
            43.09,
            40.6
          ],
          [
            28.98,
            41.01
          ],
          [
            26.53,
            41.72
          ]
        ]
      }
    }
  ]
}
