{"type": "FeatureCollection", "properties": {"corridor_ref": "urn:worldfabric:corridor:middle-corridor", "basemap_note": "© OpenStreetMap contributors, ODbL 1.0", "rail_length_km": 9439.4, "method": "Each land leg is the least-cost path over the OpenStreetMap railway=rail graph between the named nodes, within a queried corridor of 48 bounding boxes. Service tracks carry a x6 cost so they are used only to bridge station connections. Least-cost is not a claim about the route operators actually use: that is a research question for the corridor record."}, "features": [{"type": "Feature", "properties": {"from": "Xi'an", "to": "Khorgos / Altynkol", "mode": "rail", "geometry_status": "osm-derived", "length_km": 3065.9, "detour_ratio": 1.148, "snap_km": [4.0, 7.3], "source": "OpenStreetMap contributors, ODbL 1.0", "method": "least-cost path over the OSM railway=rail graph between the named nodes"}, "geometry": {"type": "LineString", "coordinates": [[108.931, 34.3753], [108.8229, 34.3499], [108.7141, 34.3471], [108.5565, 34.3067], [108.4884, 34.2589], [108.4254, 34.2401], [107.8716, 34.2674], [107.7682, 34.2545], [107.465, 34.2978], [107.3884, 34.3308], [107.1497, 34.3314], [106.6981, 34.3639], [106.5209, 34.4469], [106.3648, 34.453], [106.0218, 34.5498], [105.8913, 34.5415], [105.803, 34.5672], [105.6753, 34.708], [105.6437, 34.9114], [105.5603, 34.9647], [105.3509, 35.168], [105.1274, 35.2338], [105.0145, 35.3214], [104.8214, 35.4304], [104.6976, 35.4757], [104.6127, 35.5344], [104.553, 35.6454], [104.286, 35.7746], [104.0722, 35.9122], [103.797, 36.0119], [103.7735, 36.0632], [103.7075, 36.0708], [103.582, 36.1144], [103.5483, 36.1091], [103.4821, 36.1655], [103.4321, 36.1617], [103.3679, 36.5949], [103.2227, 36.7821], [103.1966, 36.8692], [103.1456, 36.9125], [103.1302, 37.0089], [103.0315, 37.0505], [102.9631, 37.1237], [102.8999, 37.2971], [102.9031, 37.3566], [102.8828, 37.3767], [102.9, 37.3846], [102.9169, 37.367], [102.9349, 37.3853], [102.8735, 37.4215], [102.8738, 37.4461], [102.9045, 37.4464], [102.9347, 37.496], [102.908, 37.5112], [102.9148, 37.5334], [102.8897, 37.5815], [102.7469, 37.7695], [102.7457, 37.8066], [102.5601, 37.9453], [102.257, 38.2485], [102.1746, 38.3091], [102.0637, 38.3601], [102.0427, 38.4093], [102.0153, 38.3967], [102.0103, 38.4306], [101.9875, 38.4348], [101.9712, 38.4191], [101.9671, 38.4503], [101.8729, 38.4802], [101.8965, 38.4998], [101.7159, 38.5494], [101.6452, 38.601], [101.4661, 38.6803], [101.3117, 38.717], [101.0646, 38.8195], [100.9445, 38.8164], [100.8046, 38.8452], [100.5667, 38.9478], [100.3771, 39.069], [100.2734, 39.1016], [100.1759, 39.1533], [99.9938, 39.1793], [99.7447, 39.2802], [99.337, 39.3223], [99.1859, 39.3559], [99.1058, 39.3458], [99.0047, 39.3636], [98.856, 39.4546], [98.6887, 39.489], [98.5392, 39.6078], [98.3627, 39.6668], [98.2648, 39.7459], [98.3038, 39.7188], [98.0457, 39.8206], [97.85, 39.8694], [97.7516, 39.9192], [97.3726, 40.0515], [97.2308, 40.1538], [97.1092, 40.2171], [97.0109, 40.2998], [96.3691, 40.6658], [96.2566, 40.7517], [95.978, 40.8551], [95.5152, 41.0733], [95.2147, 41.2721], [95.023, 41.3333], [94.4203, 41.6877], [94.3323, 41.7671], [94.0222, 42.2988], [93.6599, 42.7251], [93.5265, 42.8369], [93.4315, 42.8834], [92.8335, 43.0255], [92.6985, 43.0281], [92.0991, 43.124], [91.7453, 43.1282], [91.5074, 43.1023], [90.6721, 43.1144], [90.2429, 42.9272], [90.1558, 42.9139], [89.9936, 42.9619], [89.7431, 43.0087], [89.2517, 43.0466], [89.1444, 43.0238], [89.0635, 43.0235], [88.9628, 43.0761], [88.8519, 43.1019], [88.716, 43.1678], [88.5853, 43.1863], [88.3886, 43.2615], [88.3042, 43.341], [88.2381, 43.3808], [88.1186, 43.419], [87.9512, 43.5502], [87.6535, 43.6599], [87.5832, 43.7211], [87.584, 43.7724], [87.5409, 43.8102], [87.5391, 43.8325], [87.3722, 43.8748], [87.3407, 43.9048], [87.28, 43.9281], [87.2052, 43.9343], [87.0871, 44.0095], [87.0019, 44.023], [86.8361, 44.1563], [86.5705, 44.1731], [86.4065, 44.2039], [86.278, 44.203], [86.177, 44.2543], [86.0932, 44.2739], [85.9898, 44.2531], [85.5363, 44.3316], [85.3076, 44.3253], [85.2125, 44.3637], [85.1571, 44.3727], [85.0761, 44.3634], [84.7894, 44.4276], [84.6996, 44.407], [84.479, 44.4344], [84.3537, 44.4068], [84.1322, 44.3966], [83.8694, 44.4737], [83.7465, 44.4934], [83.6398, 44.483], [83.5912, 44.5314], [83.5286, 44.55], [83.3619, 44.5623], [83.2671, 44.5995], [83.1108, 44.6109], [82.9615, 44.6505], [82.9052, 44.5938], [82.8831, 44.4717], [82.8419, 44.3974], [82.8027, 44.3843], [82.7388, 44.3893], [82.7269, 44.3698], [82.6936, 44.361], [82.6938, 44.3277], [82.6455, 44.3146], [82.4724, 44.3206], [82.4134, 44.2498], [82.4207, 44.1932], [82.381, 44.2119], [82.2307, 44.1962], [82.1072, 44.0919], [82.0717, 43.9971], [82.0831, 43.9596], [82.0572, 43.9569], [82.0303, 43.9738], [81.9994, 43.9435], [81.9587, 43.9461], [81.9359, 43.9022], [81.8691, 43.8797], [81.6435, 43.9425], [81.4708, 43.9533], [81.382, 43.9796], [81.2959, 43.9619], [81.2374, 43.9732], [81.0823, 43.9541], [80.8628, 44.0221], [80.811, 44.0929], [80.7295, 44.1569], [80.6697, 44.1717], [80.4327, 44.1547]]}}, {"type": "Feature", "properties": {"from": "Khorgos / Altynkol", "to": "Almaty", "mode": "rail", "geometry_status": "osm-derived", "length_km": 354.1, "detour_ratio": 1.166, "snap_km": [7.3, 1.7], "source": "OpenStreetMap contributors, ODbL 1.0", "method": "least-cost path over the OSM railway=rail graph between the named nodes"}, "geometry": {"type": "LineString", "coordinates": [[80.4327, 44.1547], [80.2492, 44.1644], [80.1554, 44.111], [80.0531, 44.0133], [79.7457, 43.9451], [79.4972, 43.7386], [79.3159, 43.7447], [79.2502, 43.7725], [78.9823, 43.7663], [78.8195, 43.7415], [78.5973, 43.6715], [77.7828, 43.6672], [77.7066, 43.6545], [77.6031, 43.6143], [77.5572, 43.621], [77.4215, 43.6991], [77.294, 43.7246], [77.138, 43.7106], [77.0399, 43.4568], [76.9843, 43.3501], [76.9604, 43.3382], [76.9455, 43.2761], [76.9135, 43.2751], [76.8972, 43.2539]]}}, {"type": "Feature", "properties": {"from": "Almaty", "to": "Aktau / Kuryk", "mode": "rail", "geometry_status": "osm-derived", "length_km": 3259.7, "detour_ratio": 1.575, "snap_km": [1.7, 2.8], "source": "OpenStreetMap contributors, ODbL 1.0", "method": "least-cost path over the OSM railway=rail graph between the named nodes"}, "geometry": {"type": "LineString", "coordinates": [[76.8972, 43.2539], [76.9135, 43.2751], [76.9452, 43.2757], [76.9622, 43.3375], [76.8876, 43.3577], [76.7954, 43.3564], [76.6053, 43.3841], [76.4915, 43.5155], [76.3085, 43.5983], [76.1765, 43.6061], [76.0365, 43.595], [75.8009, 43.5231], [75.7303, 43.5378], [75.3061, 43.5294], [75.203, 43.5403], [75.0848, 43.5714], [74.7928, 43.7145], [74.5374, 43.8134], [74.4279, 43.8418], [74.4024, 43.8189], [74.3564, 43.8165], [74.2804, 43.847], [74.2427, 43.8404], [74.2182, 43.8742], [74.1552, 43.8681], [74.0546, 43.8858], [74.0275, 43.847], [73.9439, 43.8068], [73.7292, 43.5716], [73.6562, 43.4832], [73.6302, 43.4003], [73.5574, 43.3169], [73.4791, 43.2775], [73.0986, 43.1527], [72.8432, 43.0173], [72.7657, 42.9445], [72.3848, 42.9873], [72.2278, 42.9829], [71.6658, 43.0105], [71.5895, 42.9848], [71.3181, 42.8307], [71.291, 42.8303], [71.2991, 42.788], [71.2646, 42.7753], [71.2749, 42.7343], [71.2188, 42.6779], [70.9, 42.6563], [70.7456, 42.6151], [70.6556, 42.5451], [70.6003, 42.5281], [70.5838, 42.5001], [70.4657, 42.5022], [70.3797, 42.4756], [70.2104, 42.4988], [70.1095, 42.5451], [70.0434, 42.5359], [70.0278, 42.5513], [70.0136, 42.5424], [69.9609, 42.5555], [69.9292, 42.5348], [69.9026, 42.5431], [69.8988, 42.5225], [69.8831, 42.5282], [69.8462, 42.5082], [69.8519, 42.4684], [69.8299, 42.4309], [69.7866, 42.4094], [69.7768, 42.3738], [69.6601, 42.3292], [69.6586, 42.3112], [69.5995, 42.2876], [69.4923, 42.3481], [69.385, 42.3744], [69.2707, 42.3717], [69.1394, 42.393], [69.0974, 42.3752], [68.976, 42.43], [68.9006, 42.4114], [68.8383, 42.4197], [68.8247, 42.4423], [68.7797, 42.4424], [68.5971, 42.6299], [68.4586, 42.8016], [68.3139, 43.0342], [68.2279, 43.2771], [67.4517, 43.6861], [67.2985, 43.8019], [67.2356, 43.9182], [66.4645, 44.3186], [66.2814, 44.4353], [66.0281, 44.6504], [65.8942, 44.6952], [65.7103, 44.7979], [65.5921, 44.8083], [65.5254, 44.85], [65.4759, 44.8582], [65.3856, 44.9141], [65.3387, 44.9798], [65.2882, 44.9988], [65.2524, 44.9906], [65.192, 45.0404], [65.1272, 45.0434], [65.0763, 45.0291], [64.9642, 45.0653], [64.7986, 45.0816], [64.6346, 45.0748], [64.5779, 45.0937], [64.5372, 45.1168], [64.5131, 45.214], [64.4502, 45.2253], [64.2054, 45.4283], [64.1093, 45.4715], [63.9267, 45.5958], [63.7871, 45.753], [63.6975, 45.7626], [63.5429, 45.7086], [63.2885, 45.6481], [62.6945, 45.7872], [62.611, 45.8339], [62.3154, 45.8526], [62.1782, 45.8464], [62.103, 45.8686], [61.9828, 45.9671], [61.9363, 45.9708], [61.9309, 46.0011], [61.8716, 46.0262], [61.9349, 46.1326], [61.9574, 46.2215], [61.8695, 46.4251], [61.8924, 46.5179], [61.8084, 46.5775], [61.763, 46.7092], [61.6959, 46.7951], [61.661, 46.804], [61.5528, 46.8936], [61.1943, 47.058], [61.1269, 47.1237], [61.0614, 47.1221], [61.0508, 47.2018], [61.0058, 47.2276], [60.9816, 47.3078], [60.9045, 47.3446], [60.8929, 47.3912], [60.7556, 47.4602], [60.7126, 47.5003], [60.5322, 47.5623], [60.4823, 47.6044], [60.4424, 47.6022], [60.4417, 47.6257], [60.3674, 47.6616], [60.1808, 47.6833], [60.1302, 47.6673], [59.8286, 47.7269], [59.5196, 47.8933], [59.4498, 47.9186], [59.3278, 47.9272], [59.1899, 47.9959], [59.007, 48.262], [58.8067, 48.3495], [58.6932, 48.3721], [58.5718, 48.4213], [58.5471, 48.4502], [58.5596, 48.4793], [58.5382, 48.5344], [58.4794, 48.5913], [58.302, 48.6812], [58.1371, 48.8388], [58.063, 48.8677], [58.064, 48.906], [57.9508, 49.0057], [57.9308, 49.0649], [57.7987, 49.1247], [57.7841, 49.1504], [57.7348, 49.162], [57.655, 49.2317], [57.6004, 49.2489], [57.5418, 49.3086], [57.5242, 49.3709], [57.4487, 49.4116], [57.4313, 49.4605], [57.3695, 49.394], [57.2168, 49.3511], [57.0801, 49.3371], [57.0364, 49.2805], [56.8695, 49.2201], [56.648, 49.1877], [56.6112, 49.2012], [56.5079, 49.1526], [56.408, 49.0761], [56.3884, 49.0215], [56.2419, 48.9651], [56.1618, 48.8701], [56.1551, 48.8263], [56.0966, 48.788], [56.05, 48.7932], [55.9094, 48.7253], [55.5438, 48.5048], [55.5094, 48.5149], [55.0298, 48.3837], [55.0163, 48.3465], [54.8604, 48.2118], [54.815, 48.212], [54.7165, 48.1547], [54.6696, 48.0947], [54.4984, 48.0442], [54.1175, 47.8786], [54.0445, 47.8717], [53.6506, 47.7274], [53.5346, 47.7121], [53.3487, 47.6443], [53.3827, 47.6493], [53.6518, 47.4185], [53.6832, 47.357], [53.8224, 47.216], [53.8664, 47.1134], [53.9169, 47.0518], [53.9307, 46.9626], [53.9964, 46.85], [54.2606, 46.5341], [54.5315, 46.1189], [55.2075, 45.3094], [55.156, 45.1486], [54.967, 45.0249], [54.1229, 44.6449], [53.5037, 44.323], [53.4678, 44.2908], [53.4134, 44.2858], [53.2811, 44.309], [53.2292, 44.3017], [53.1373, 44.2376], [53.1122, 44.1733], [53.016, 44.1558], [52.8744, 44.1624], [52.8319, 44.183], [52.7587, 44.1888], [52.6821, 44.2293], [52.349, 44.2522], [52.2562, 44.1904], [52.2589, 44.1608], [52.1276, 44.13], [51.8385, 43.9939], [51.6982, 43.9673], [51.5614, 43.915], [51.5287, 43.8964], [51.4773, 43.8222], [51.4271, 43.7925], [51.3609, 43.7801], [51.2968, 43.7336], [51.3112, 43.677], [51.2331, 43.67], [51.2307, 43.6329], [51.1815, 43.6404]]}}, {"type": "Feature", "properties": {"from": "Alat", "to": "Ganja", "mode": "rail", "geometry_status": "osm-derived", "length_km": 286.7, "detour_ratio": 1.038, "snap_km": [3.9, 2.2], "source": "OpenStreetMap contributors, ODbL 1.0", "method": "least-cost path over the OSM railway=rail graph between the named nodes"}, "geometry": {"type": "LineString", "coordinates": [[49.4507, 39.9716], [49.4437, 39.9802], [49.3971, 39.956], [49.3989, 39.971], [49.3414, 39.9483], [49.0468, 40.0499], [48.9436, 40.0423], [48.5843, 40.2079], [48.1529, 40.3419], [47.7993, 40.4886], [47.7159, 40.5069], [47.5113, 40.5181], [47.3728, 40.572], [47.1903, 40.6185], [46.6788, 40.6694], [46.5993, 40.6964], [46.4505, 40.6981], [46.3924, 40.7141], [46.3709, 40.6982]]}}, {"type": "Feature", "properties": {"from": "Ganja", "to": "Tbilisi", "mode": "rail", "geometry_status": "osm-derived", "length_km": 192.1, "detour_ratio": 1.098, "snap_km": [2.2, 0.8], "source": "OpenStreetMap contributors, ODbL 1.0", "method": "least-cost path over the OSM railway=rail graph between the named nodes"}, "geometry": {"type": "LineString", "coordinates": [[46.3709, 40.6982], [46.3835, 40.7132], [46.1305, 40.8419], [45.9603, 40.8983], [45.8461, 40.9096], [45.6862, 40.9654], [45.6196, 40.9722], [45.5745, 41.0464], [45.525, 41.0581], [45.4551, 41.1061], [45.4472, 41.1317], [45.4739, 41.1939], [45.4367, 41.2486], [45.3508, 41.2773], [45.2155, 41.354], [44.9402, 41.6548], [44.8248, 41.6934], [44.798, 41.7232]]}}, {"type": "Feature", "properties": {"from": "Tbilisi", "to": "Kars", "mode": "rail", "geometry_status": "osm-derived", "length_km": 291.4, "detour_ratio": 1.541, "snap_km": [0.8, 0.8], "source": "OpenStreetMap contributors, ODbL 1.0", "method": "least-cost path over the OSM railway=rail graph between the named nodes"}, "geometry": {"type": "LineString", "coordinates": [[44.798, 41.7232], [44.824, 41.6938], [44.8872, 41.6676], [44.9068, 41.637], [44.8628, 41.5783], [44.7663, 41.5112], [44.6008, 41.5198], [44.5248, 41.545], [44.4807, 41.527], [44.3861, 41.5485], [44.4023, 41.5723], [44.3692, 41.5822], [44.3936, 41.5934], [44.3668, 41.6043], [44.1811, 41.6249], [44.1298, 41.6168], [43.9971, 41.5773], [43.9587, 41.5391], [43.8949, 41.5387], [43.8872, 41.5052], [43.852, 41.4798], [43.8618, 41.4623], [43.8332, 41.4123], [43.771, 41.374], [43.7578, 41.2914], [43.671, 41.2919], [43.6575, 41.2727], [43.6059, 41.2746], [43.4879, 41.3325], [43.4029, 41.2827], [43.3354, 41.2624], [43.2969, 41.2009], [43.2962, 41.1522], [43.3074, 41.1011], [43.3548, 41.0572], [43.3231, 41.0399], [43.2999, 40.9378], [43.2799, 40.9248], [43.3043, 40.889], [43.2787, 40.841], [43.1992, 40.7811], [43.1945, 40.7179], [43.2166, 40.6736], [43.0976, 40.5957]]}}, {"type": "Feature", "properties": {"from": "Kars", "to": "Istanbul", "mode": "rail", "geometry_status": "osm-derived", "length_km": 1702.1, "detour_ratio": 1.434, "snap_km": [0.8, 0.4], "source": "OpenStreetMap contributors, ODbL 1.0", "method": "least-cost path over the OSM railway=rail graph between the named nodes"}, "geometry": {"type": "LineString", "coordinates": [[43.0976, 40.5957], [42.9497, 40.4646], [42.7435, 40.412], [42.6965, 40.4126], [42.6181, 40.3488], [42.4524, 40.2808], [42.4031, 40.276], [42.3287, 40.3052], [42.3311, 40.3225], [42.3026, 40.3194], [42.2918, 40.2637], [42.2188, 40.1539], [42.2566, 40.1081], [42.2147, 40.0653], [42.1458, 40.0315], [42.0112, 40.0271], [41.8925, 39.9721], [41.8013, 39.9543], [41.7221, 39.9841], [41.5073, 39.9514], [41.4485, 39.9506], [41.4262, 39.9664], [41.3971, 39.9445], [41.318, 39.9531], [41.2528, 39.9102], [41.0965, 39.9541], [40.988, 39.9486], [40.8699, 39.9072], [40.8062, 39.9092], [40.7504, 39.9421], [40.6841, 39.9215], [40.6211, 39.9456], [40.4905, 39.9551], [40.3561, 39.9303], [40.2565, 39.9333], [40.1832, 39.9143], [40.1481, 39.8781], [40.1806, 39.8335], [40.2495, 39.785], [40.2628, 39.7378], [40.1779, 39.6534], [40.1891, 39.616], [40.1703, 39.581], [40.1012, 39.557], [40.0494, 39.5539], [39.8742, 39.5874], [39.7557, 39.6454], [39.6117, 39.6776], [39.5007, 39.7352], [39.4155, 39.7045], [39.3676, 39.6525], [39.3034, 39.6297], [39.2493, 39.6348], [39.1191, 39.6038], [39.0379, 39.6101], [38.98, 39.5805], [38.8581, 39.5701], [38.8287, 39.5414], [38.7713, 39.5503], [38.7255, 39.4932], [38.6304, 39.4976], [38.5552, 39.4717], [38.5273, 39.4454], [38.4085, 39.4256], [38.3688, 39.3938], [38.3723, 39.3669], [38.3296, 39.3615], [38.3004, 39.3768], [38.2405, 39.3405], [38.176, 39.3512], [38.1165, 39.3811], [38.0875, 39.4363], [38.0612, 39.4321], [38.0292, 39.4497], [37.7664, 39.3378], [37.7432, 39.3415], [37.7121, 39.3074], [37.6028, 39.2468], [37.5064, 39.2769], [37.4444, 39.2657], [37.4021, 39.241], [37.3224, 39.2852], [37.2824, 39.2881], [37.189, 39.3608], [37.106, 39.3496], [37.1046, 39.3633], [37.1458, 39.3696], [37.1561, 39.3901], [37.0812, 39.4105], [37.018, 39.4581], [37.0089, 39.5189], [37.0365, 39.5875], [37.002, 39.6651], [37.0147, 39.7404], [36.9457, 39.718], [36.833, 39.7292], [36.762, 39.8173], [36.6243, 39.8629], [36.3299, 39.8353], [36.2368, 39.7666], [36.0845, 39.7494], [35.9638, 39.7795], [35.8375, 39.784], [35.7572, 39.768], [35.5622, 39.7888], [35.4884, 39.8163], [35.4122, 39.8194], [35.3496, 39.8], [35.2105, 39.8312], [35.1375, 39.8246], [35.0248, 39.7897], [34.9322, 39.7881], [34.7633, 39.7396], [34.6674, 39.6836], [34.5957, 39.6946], [34.5049, 39.6798], [34.2954, 39.7259], [34.2311, 39.7569], [34.1776, 39.8055], [34.0737, 39.8128], [33.985, 39.8744], [33.9689, 39.9163], [33.9358, 39.9329], [33.8719, 39.9206], [33.8024, 39.9324], [33.6797, 39.9017], [33.6229, 39.8726], [33.5093, 39.864], [33.4341, 39.8752], [33.3878, 39.861], [33.3625, 39.8261], [33.3359, 39.8188], [33.2989, 39.8347], [33.2738, 39.9144], [33.1591, 39.97], [33.101, 39.9663], [32.9716, 39.9133], [32.8885, 39.9412], [32.8523, 39.9293], [32.8224, 39.946], [32.7226, 39.925], [32.5507, 39.9722], [32.4845, 39.9376], [32.4741, 39.8976], [32.3567, 39.7389], [32.2878, 39.7154], [32.21, 39.6625], [32.1905, 39.5941], [32.1437, 39.5571], [32.0025, 39.5766], [31.9499, 39.647], [31.9182, 39.6634], [31.6507, 39.6982], [31.5791, 39.7539], [31.5354, 39.7443], [31.4822, 39.6968], [31.3444, 39.682], [31.1612, 39.7048], [31.029, 39.7558], [30.9566, 39.757], [30.7723, 39.8063], [30.437, 39.7713], [30.2999, 39.8253], [30.1134, 39.8487], [30.0241, 39.8909], [29.9868, 39.9457], [30.0269, 40.0223], [30.0021, 40.1173], [30.0338, 40.2675], [30.0645, 40.3199], [30.0287, 40.3936], [30.0562, 40.4686], [30.0846, 40.4898], [30.2215, 40.5024], [30.2962, 40.5303], [30.3401, 40.5741], [30.3292, 40.6202], [30.3628, 40.6604], [30.3658, 40.7118], [30.2773, 40.6922], [30.0919, 40.7114], [30.025, 40.7476], [29.9536, 40.7624], [29.7807, 40.747], [29.7345, 40.7726], [29.6176, 40.7841], [29.5731, 40.7678], [29.49, 40.7809], [29.4359, 40.7739], [29.3402, 40.8123], [29.2387, 40.88], [29.1792, 40.8881], [29.071, 40.9764], [29.044, 40.9811], [29.0252, 41.025], [28.9791, 41.0137]]}}, {"type": "Feature", "properties": {"from": "Istanbul", "to": "Kapıkule", "mode": "rail", "geometry_status": "osm-derived", "length_km": 287.4, "detour_ratio": 1.311, "snap_km": [0.4, 4.6], "source": "OpenStreetMap contributors, ODbL 1.0", "method": "least-cost path over the OSM railway=rail graph between the named nodes"}, "geometry": {"type": "LineString", "coordinates": [[28.9791, 41.0137], [28.9008, 40.9828], [28.849, 40.9794], [28.8322, 40.9628], [28.8008, 40.9648], [28.7755, 40.9779], [28.7473, 41.0579], [28.7229, 41.0483], [28.7039, 41.0571], [28.6337, 41.1288], [28.5947, 41.1379], [28.5575, 41.1265], [28.4908, 41.1445], [28.4423, 41.1846], [28.359, 41.2187], [28.2807, 41.187], [28.2681, 41.2408], [28.2232, 41.244], [28.1822, 41.2286], [28.139, 41.2585], [28.0809, 41.2635], [28.0484, 41.2816], [27.9012, 41.2594], [27.7836, 41.1776], [27.6264, 41.1389], [27.546, 41.1457], [27.4767, 41.1915], [27.5058, 41.2346], [27.4635, 41.2476], [27.4605, 41.2688], [27.4254, 41.2886], [27.4349, 41.3045], [27.3999, 41.3134], [27.4053, 41.3331], [27.3447, 41.3549], [27.2447, 41.3743], [27.108, 41.3685], [27.0522, 41.3482], [26.9903, 41.3697], [26.9475, 41.3461], [26.889, 41.3484], [26.7874, 41.4409], [26.6964, 41.5665], [26.5749, 41.6586], [26.5097, 41.6813]]}}, {"type": "Feature", "properties": {"from": "Aktau / Kuryk", "to": "Alat", "mode": "ferry", "geometry_status": "indicative", "note": "No rail exists across the Caspian. This leg is a declared sea crossing, drawn as a straight connector, not a shipping lane."}, "geometry": {"type": "LineString", "coordinates": [[51.15, 43.65], [49.47, 39.94]]}}]}
